<?xml version="1.0" encoding="UTF-8"?>
<gpx version="1.1" creator="Frankreich 2026 Reiseapp" xmlns="http://www.topografix.com/GPX/1/1"><metadata><name>Bad Zwischenahn → Vézelay / Morvan</name><time>2026-06-02T19:14:14.362Z</time></metadata><trk><name>Bad Zwischenahn → Vézelay / Morvan</name><trkseg><trkpt lat="53.1875953" lon="7.9952758"><ele>52.89999771118164</ele><time>2026-06-02T19:11:03.275Z</time></trkpt><trkpt lat="53.1876589" lon="7.995358"><ele>51.06437344859752</ele><time>2026-06-02T19:14:04.717Z</time></trkpt></trkseg></trk></gpx>